start=new Date('2021-12-29T00:00:00.000Z').valueOf();
sats=[{"ARG_OF_PERICENTER":"95.9942","CLASSIFICATION_TYPE":"U","ELEMENT_SET_NO":"999","GP_ID":"192673902","CENTER_NAME":"EARTH","APOAPSIS":"548.311","EPHEMERIS_TYPE":"0","ECCENTRICITY":"0.00016020","OBJECT_ID":"2020-025AB","MEAN_MOTION":"15.06403772","BSTAR":"0.00000955370000","MEAN_ELEMENT_THEORY":"SGP4","SITE":"AFETR","FILE":"3254265","COUNTRY_CODE":"US","MEAN_MOTION_DDOT":"0.0000000000000","DECAY_DATE":null,"TLE_LINE2":"2 45556  53.0535 123.4281 0001602  95.9942 264.1230 15.06403772 94484","NORAD_CAT_ID":"45556","SEMIMAJOR_AXIS":"6925.337","TIME_SYSTEM":"UTC","OBJECT_NAME":"STARLINK-1334","TLE_LINE1":"1 45556U 20025AB  21362.82673185 -.00000139  00000-0  95537-5 0  9996","RA_OF_ASC_NODE":"123.4281","RCS_SIZE":"LARGE","INCLINATION":"53.0535","EPOCH":"2021-12-28T19:50:29.631840","MEAN_ANOMALY":"264.1230","REV_AT_EPOCH":"9448","PERIOD":"95.592","MEAN_MOTION_DOT":"-0.00000139","PERIAPSIS":"546.093","LAUNCH_DATE":"2020-04-22","REF_FRAME":"TEME","OBJECT_TYPE":"PAYLOAD"},{"MEAN_MOTION_DOT":"0.00003846","PERIOD":"95.592","LAUNCH_DATE":"2020-04-22","PERIAPSIS":"546.135","OBJECT_TYPE":"PAYLOAD","REF_FRAME":"TEME","MEAN_ANOMALY":"264.1252","REV_AT_EPOCH":"9448","INCLINATION":"53.0517","EPOCH":"2021-12-28T20:01:05.894400","NORAD_CAT_ID":"45557","TLE_LINE2":"2 45557  53.0517 123.3858 0001535  95.9912 264.1252 15.06405172 94486","SEMIMAJOR_AXIS":"6925.333","OBJECT_NAME":"STARLINK-1336","TIME_SYSTEM":"UTC","RCS_SIZE":"LARGE","RA_OF_ASC_NODE":"123.3858","TLE_LINE1":"1 45557U 20025AC  21362.83409600  .00003846  00000-0  27694-3 0  9991","MEAN_MOTION_DDOT":"0.0000000000000","DECAY_DATE":null,"FILE":"3254265","SITE":"AFETR","COUNTRY_CODE":"US","OBJECT_ID":"2020-025AC","MEAN_MOTION":"15.06405172","ECCENTRICITY":"0.00015350","BSTAR":"0.00027694000000","MEAN_ELEMENT_THEORY":"SGP4","ELEMENT_SET_NO":"999","CLASSIFICATION_TYPE":"U","ARG_OF_PERICENTER":"95.9912","GP_ID":"192672150","EPHEMERIS_TYPE":"0","APOAPSIS":"548.261","CENTER_NAME":"EARTH"},{"EPOCH":"2021-12-28T20:48:52.236000","INCLINATION":"53.0545","RA_OF_ASC_NODE":"123.2434","TLE_LINE1":"1 45558U 20025AD  21362.86727125  .00000104  00000-0  25915-4 0  9999","RCS_SIZE":"LARGE","NORAD_CAT_ID":"45558","TLE_LINE2":"2 45558  53.0545 123.2434 0001672 102.1266 257.9911 15.06399735 94481","SEMIMAJOR_AXIS":"6925.349","TIME_SYSTEM":"UTC","OBJECT_NAME":"STARLINK-1342","REF_FRAME":"TEME","OBJECT_TYPE":"PAYLOAD","PERIOD":"95.592","MEAN_MOTION_DOT":"0.00000104","LAUNCH_DATE":"2020-04-22","PERIAPSIS":"546.056","REV_AT_EPOCH":"9448","MEAN_ANOMALY":"257.9911","BSTAR":"0.00002591500000","MEAN_ELEMENT_THEORY":"SGP4","ECCENTRICITY":"0.00016720","OBJECT_ID":"2020-025AD","MEAN_MOTION":"15.06399735","CENTER_NAME":"EARTH","APOAPSIS":"548.372","EPHEMERIS_TYPE":"0","CLASSIFICATION_TYPE":"U","ARG_OF_PERICENTER":"102.1266","ELEMENT_SET_NO":"999","GP_ID":"192672900","MEAN_MOTION_DDOT":"0.0000000000000","DECAY_DATE":null,"COUNTRY_CODE":"US","SITE":"AFETR","FILE":"3254265"},{"NORAD_CAT_ID":"45559","TLE_LINE2":"2 45559  53.0526 123.6634 0001579  87.8348 272.2822 15.06402511 94470","SEMIMAJOR_AXIS":"6925.341","OBJECT_NAME":"STARLINK-1344","TIME_SYSTEM":"UTC","RA_OF_ASC_NODE":"123.6634","TLE_LINE1":"1 45559U 20025AE  21362.77144716 -.00001452  00000-0 -78619-4 0  9997","RCS_SIZE":"LARGE","INCLINATION":"53.0526","EPOCH":"2021-12-28T18:30:53.034624","MEAN_ANOMALY":"272.2822","REV_AT_EPOCH":"9447","PERIOD":"95.592","MEAN_MOTION_DOT":"-0.00001452","PERIAPSIS":"546.112","LAUNCH_DATE":"2020-04-22","REF_FRAME":"TEME","OBJECT_TYPE":"PAYLOAD","ARG_OF_PERICENTER":"87.8348","CLASSIFICATION_TYPE":"U","ELEMENT_SET_NO":"999","GP_ID":"192673652","APOAPSIS":"548.299","CENTER_NAME":"EARTH","EPHEMERIS_TYPE":"0","ECCENTRICITY":"0.00015790","OBJECT_ID":"2020-025AE","MEAN_MOTION":"15.06402511","BSTAR":"-0.00007861900000","MEAN_ELEMENT_THEORY":"SGP4","FILE":"3254265","SITE":"AFETR","COUNTRY_CODE":"US","MEAN_MOTION_DDOT":"0.0000000000000","DECAY_DATE":null},{"OBJECT_TYPE":"PAYLOAD","REF_FRAME":"TEME","LAUNCH_DATE":"2020-04-22","PERIAPSIS":"545.952","MEAN_MOTION_DOT":"-0.00002785","PERIOD":"95.592","REV_AT_EPOCH":"9460","MEAN_ANOMALY":"255.8615","EPOCH":"2021-12-28T16:35:26.347488","INCLINATION":"53.0549","RCS_SIZE":"LARGE","TLE_LINE1":"1 45560U 20025AF  21362.69127717 -.00002785  00000-0 -16811-3 0  9997","RA_OF_ASC_NODE":"114.0342","OBJECT_NAME":"STARLINK-1346","TIME_SYSTEM":"UTC","TLE_LINE2":"2 45560  53.0549 114.0342 0001780 104.2572 255.8615 15.06409370 94606","SEMIMAJOR_AXIS":"6925.320","NORAD_CAT_ID":"45560","DECAY_DATE":null,"MEAN_MOTION_DDOT":"0.0000000000000","COUNTRY_CODE":"US","FILE":"3254265","SITE":"AFETR","BSTAR":"-0.00016811000000","MEAN_ELEMENT_THEORY":"SGP4","MEAN_MOTION":"15.06409370","OBJECT_ID":"2020-025AF","ECCENTRICITY":"0.00017800","EPHEMERIS_TYPE":"0","CENTER_NAME":"EARTH","APOAPSIS":"548.418","GP_ID":"192673402","ELEMENT_SET_NO":"999","CLASSIFICATION_TYPE":"U","ARG_OF_PERICENTER":"104.2572"},{"ECCENTRICITY":"0.00018960","MEAN_MOTION":"15.08219086","OBJECT_ID":"2020-025AG","BSTAR":"0.00069279000000","MEAN_ELEMENT_THEORY":"SGP4","GP_ID":"192672651","ARG_OF_PERICENTER":"90.8724","CLASSIFICATION_TYPE":"U","ELEMENT_SET_NO":"999","APOAPSIS":"542.956","CENTER_NAME":"EARTH","EPHEMERIS_TYPE":"0","DECAY_DATE":null,"MEAN_MOTION_DDOT":"0.0000000000000","FILE":"3254265","SITE":"AFETR","COUNTRY_CODE":"US","INCLINATION":"53.0600","EPOCH":"2021-12-28T12:44:11.350752","OBJECT_NAME":"STARLINK-1348","TIME_SYSTEM":"UTC","TLE_LINE2":"2 45561  53.0600  38.8704 0001896  90.8724 269.2483 15.08219086 95649","SEMIMAJOR_AXIS":"6919.779","NORAD_CAT_ID":"45561","RA_OF_ASC_NODE":"38.8704","TLE_LINE1":"1 45561U 20025AG  21362.53068693  .00010571  00000-0  69279-3 0  9994","RCS_SIZE":"LARGE","PERIAPSIS":"540.332","LAUNCH_DATE":"2020-04-22","PERIOD":"95.477","MEAN_MOTION_DOT":"0.00010571","REF_FRAME":"TEME","OBJECT_TYPE":"PAYLOAD","MEAN_ANOMALY":"269.2483","REV_AT_EPOCH":"9564"},{"REV_AT_EPOCH":"9446","MEAN_ANOMALY":"255.8937","OBJECT_TYPE":"PAYLOAD","REF_FRAME":"TEME","MEAN_MOTION_DOT":"0.00002751","PERIOD":"95.592","LAUNCH_DATE":"2020-04-22","PERIAPSIS":"546.082","RCS_SIZE":"LARGE","TLE_LINE1":"1 45562U 20025AH  21362.71246668  .00002751  00000-0  20353-3 0  9996","RA_OF_ASC_NODE":"123.9308","SEMIMAJOR_AXIS":"6925.356","TLE_LINE2":"2 45562  53.0528 123.9308 0001645 104.2235 255.8937 15.06397518 94463","NORAD_CAT_ID":"45562","TIME_SYSTEM":"UTC","OBJECT_NAME":"STARLINK-1354","EPOCH":"2021-12-28T17:05:57.121152","INCLINATION":"53.0528","COUNTRY_CODE":"US","FILE":"3254265","SITE":"AFETR","MEAN_MOTION_DDOT":"0.0000000000000","DECAY_DATE":null,"EPHEMERIS_TYPE":"0","APOAPSIS":"548.360","CENTER_NAME":"EARTH","ELEMENT_SET_NO":"999","CLASSIFICATION_TYPE":"U","ARG_OF_PERICENTER":"104.2235","GP_ID":"192672400","MEAN_ELEMENT_THEORY":"SGP4","BSTAR":"0.00020353000000","OBJECT_ID":"2020-025AH","MEAN_MOTION":"15.06397518","ECCENTRICITY":"0.00016450"},{"BSTAR":"0.00018022000000","MEAN_ELEMENT_THEORY":"SGP4","OBJECT_ID":"2020-025AJ","MEAN_MOTION":"15.06404295","ECCENTRICITY":"0.00015430","EPHEMERIS_TYPE":"0","APOAPSIS":"548.269","CENTER_NAME":"EARTH","ELEMENT_SET_NO":"999","ARG_OF_PERICENTER":"100.7327","CLASSIFICATION_TYPE":"U","GP_ID":"192673152","MEAN_MOTION_DDOT":"0.0000000000000","DECAY_DATE":null,"COUNTRY_CODE":"US","FILE":"3254265","SITE":"AFETR","EPOCH":"2021-12-28T17:27:10.563840","INCLINATION":"53.0540","RCS_SIZE":"LARGE","TLE_LINE1":"1 45563U 20025AJ  21362.72720560  .00002404  00000-0  18022-3 0  9991","RA_OF_ASC_NODE":"123.8739","TLE_LINE2":"2 45563  53.0540 123.8739 0001543 100.7327 259.3835 15.06404295 94462","SEMIMAJOR_AXIS":"6925.335","NORAD_CAT_ID":"45563","OBJECT_NAME":"STARLINK-1355","TIME_SYSTEM":"UTC","OBJECT_TYPE":"PAYLOAD","REF_FRAME":"TEME","MEAN_MOTION_DOT":"0.00002404","PERIOD":"95.592","PERIAPSIS":"546.132","LAUNCH_DATE":"2020-04-22","REV_AT_EPOCH":"9446","MEAN_ANOMALY":"259.3835"},{"BSTAR":"0.00011902000000","MEAN_ELEMENT_THEORY":"SGP4","ECCENTRICITY":"0.00015250","OBJECT_ID":"2020-025AK","MEAN_MOTION":"15.06399303","APOAPSIS":"548.272","CENTER_NAME":"EARTH","EPHEMERIS_TYPE":"0","CLASSIFICATION_TYPE":"U","ARG_OF_PERICENTER":"96.0687","ELEMENT_SET_NO":"999","GP_ID":"192673903","MEAN_MOTION_DDOT":"0.0000000000000","DECAY_DATE":null,"COUNTRY_CODE":"US","SITE":"AFETR","FILE":"3254265","EPOCH":"2021-12-28T17:21:52.430400","INCLINATION":"53.0546","TLE_LINE1":"1 45564U 20025AK  21362.72352350  .00001492  00000-0  11902-3 0  9996","RA_OF_ASC_NODE":"123.8756","RCS_SIZE":"LARGE","TLE_LINE2":"2 45564  53.0546 123.8756 0001525  96.0687 264.0475 15.06399303 94460","NORAD_CAT_ID":"45564","SEMIMAJOR_AXIS":"6925.351","OBJECT_NAME":"STARLINK-1356","TIME_SYSTEM":"UTC","REF_FRAME":"TEME","OBJECT_TYPE":"PAYLOAD","PERIOD":"95.592","MEAN_MOTION_DOT":"0.00001492","PERIAPSIS":"546.160","LAUNCH_DATE":"2020-04-22","REV_AT_EPOCH":"9446","MEAN_ANOMALY":"264.0475"},{"REV_AT_EPOCH":"9448","MEAN_ANOMALY":"268.5117","OBJECT_TYPE":"PAYLOAD","REF_FRAME":"TEME","LAUNCH_DATE":"2020-04-22","PERIAPSIS":"546.255","MEAN_MOTION_DOT":"-0.00000118","PERIOD":"95.592","RCS_SIZE":"LARGE","TLE_LINE1":"1 45565U 20025AL  21362.84884871 -.00000118  00000-0  10990-4 0  9990","RA_OF_ASC_NODE":"123.3213","OBJECT_NAME":"STARLINK-1357","TIME_SYSTEM":"UTC","TLE_LINE2":"2 45565  53.0542 123.3213 0001397  91.6032 268.5117 15.06397239 94482","SEMIMAJOR_AXIS":"6925.357","NORAD_CAT_ID":"45565","EPOCH":"2021-12-28T20:22:20.528544","INCLINATION":"53.0542","COUNTRY_CODE":"US","FILE":"3254265","SITE":"AFETR","DECAY_DATE":null,"MEAN_MOTION_DDOT":"0.0000000000000","EPHEMERIS_TYPE":"0","CENTER_NAME":"EARTH","APOAPSIS":"548.189","GP_ID":"192672151","ELEMENT_SET_NO":"999","CLASSIFICATION_TYPE":"U","ARG_OF_PERICENTER":"91.6032","BSTAR":"0.00001099000000","MEAN_ELEMENT_THEORY":"SGP4","MEAN_MOTION":"15.06397239","OBJECT_ID":"2020-025AL","ECCENTRICITY":"0.00013970"}];
